FALCONSAT-10            
1 58291U 23174AM  26068.70247784  .00006748  00000+0  25969-3 0  9991
2 58291  97.3865 145.7938 0008932 169.5942 190.5483 15.26670596129582
STARLINK-32764          
1 62570U 25006S   26068.00523683  .00030599  00000+0  11168-2 0  9996
2 62570  42.9990 296.8116 0001023 259.3279 100.7457 15.27581634 64759
